CCSDS_OMM_VERS = 2.0
CREATION_DATE  = 
ORIGINATOR     = 

OBJECT_NAME    = STARLINK-36274
OBJECT_ID      = 2026-054V
CENTER_NAME    = EARTH
REF_FRAME      = TEME
TIME_SYSTEM    = UTC
MEAN_ELEMENT_THEORY = SGP/SGP4

EPOCH          = 2026-04-02T22:00:01.999584
MEAN_MOTION    = 15.75303634
ECCENTRICITY   = .00011754
INCLINATION    = 53.1591
RA_OF_ASC_NODE = 191.2897
ARG_OF_PERICENTER = 69.6888
MEAN_ANOMALY   = 340.6603

EPHEMERIS_TYPE = 0
CLASSIFICATION_TYPE = U
NORAD_CAT_ID   = 68251
ELEMENT_SET_NO = 999
REV_AT_EPOCH   = 384
BSTAR          = -.14041311E-2
MEAN_MOTION_DOT = -.21119E-2
MEAN_MOTION_DDOT = 0

CCSDS_OMM_VERS = 2.0
CREATION_DATE  = 
ORIGINATOR     = 

OBJECT_NAME    = STARLINK-37085
OBJECT_ID      = 2026-054W
CENTER_NAME    = EARTH
REF_FRAME      = TEME
TIME_SYSTEM    = UTC
MEAN_ELEMENT_THEORY = SGP/SGP4

EPOCH          = 2026-04-02T18:19:47.552448
MEAN_MOTION    = 15.81047337
ECCENTRICITY   = .00013258
INCLINATION    = 53.1594
RA_OF_ASC_NODE = 191.8494
ARG_OF_PERICENTER = 68.0300
MEAN_ANOMALY   = 292.0863

EPHEMERIS_TYPE = 0
CLASSIFICATION_TYPE = U
NORAD_CAT_ID   = 68252
ELEMENT_SET_NO = 999
REV_AT_EPOCH   = 258
BSTAR          = .15601779E-2
MEAN_MOTION_DOT = .321546E-2
MEAN_MOTION_DDOT = 0

CCSDS_OMM_VERS = 2.0
CREATION_DATE  = 
ORIGINATOR     = 

OBJECT_NAME    = STARLINK-37086
OBJECT_ID      = 2026-054X
CENTER_NAME    = EARTH
REF_FRAME      = TEME
TIME_SYSTEM    = UTC
MEAN_ELEMENT_THEORY = SGP/SGP4

EPOCH          = 2026-04-02T18:18:42.999552
MEAN_MOTION    = 15.81026615
ECCENTRICITY   = .00013456
INCLINATION    = 53.1591
RA_OF_ASC_NODE = 191.8445
ARG_OF_PERICENTER = 80.5591
MEAN_ANOMALY   = 279.5583

EPHEMERIS_TYPE = 0
CLASSIFICATION_TYPE = U
NORAD_CAT_ID   = 68253
ELEMENT_SET_NO = 999
REV_AT_EPOCH   = 258
BSTAR          = .16413257E-2
MEAN_MOTION_DOT = .338664E-2
MEAN_MOTION_DDOT = 0

CCSDS_OMM_VERS = 2.0
CREATION_DATE  = 
ORIGINATOR     = 

OBJECT_NAME    = STARLINK-37084
OBJECT_ID      = 2026-054Y
CENTER_NAME    = EARTH
REF_FRAME      = TEME
TIME_SYSTEM    = UTC
MEAN_ELEMENT_THEORY = SGP/SGP4

EPOCH          = 2026-04-02T18:16:32.952864
MEAN_MOTION    = 15.80998864
ECCENTRICITY   = .00001608
INCLINATION    = 53.1593
RA_OF_ASC_NODE = 191.8347
ARG_OF_PERICENTER = 131.6866
MEAN_ANOMALY   = 228.4171

EPHEMERIS_TYPE = 0
CLASSIFICATION_TYPE = U
NORAD_CAT_ID   = 68254
ELEMENT_SET_NO = 999
REV_AT_EPOCH   = 258
BSTAR          = .10458472E-2
MEAN_MOTION_DOT = .212102E-2
MEAN_MOTION_DDOT = 0

CCSDS_OMM_VERS = 2.0
CREATION_DATE  = 
ORIGINATOR     = 

OBJECT_NAME    = STARLINK-37075
OBJECT_ID      = 2026-054Z
CENTER_NAME    = EARTH
REF_FRAME      = TEME
TIME_SYSTEM    = UTC
MEAN_ELEMENT_THEORY = SGP/SGP4

EPOCH          = 2026-04-02T18:17:37.665600
MEAN_MOTION    = 15.81031939
ECCENTRICITY   = .00009146
INCLINATION    = 53.1593
RA_OF_ASC_NODE = 191.8399
ARG_OF_PERICENTER = 67.5136
MEAN_ANOMALY   = 292.5983

EPHEMERIS_TYPE = 0
CLASSIFICATION_TYPE = U
NORAD_CAT_ID   = 68255
ELEMENT_SET_NO = 999
REV_AT_EPOCH   = 258
BSTAR          = .14312274E-2
MEAN_MOTION_DOT = .293747E-2
MEAN_MOTION_DDOT = 0

CCSDS_OMM_VERS = 2.0
CREATION_DATE  = 
ORIGINATOR     = 

OBJECT_NAME    = STARLINK-36333
OBJECT_ID      = 2026-054AA
CENTER_NAME    = EARTH
REF_FRAME      = TEME
TIME_SYSTEM    = UTC
MEAN_ELEMENT_THEORY = SGP/SGP4

EPOCH          = 2026-04-02T18:15:28.723104
MEAN_MOTION    = 15.80995959
ECCENTRICITY   = .00012667
INCLINATION    = 53.1594
RA_OF_ASC_NODE = 191.8297
ARG_OF_PERICENTER = 74.6500
MEAN_ANOMALY   = 285.4663

EPHEMERIS_TYPE = 0
CLASSIFICATION_TYPE = U
NORAD_CAT_ID   = 68256
ELEMENT_SET_NO = 999
REV_AT_EPOCH   = 258
BSTAR          = .12659548E-2
MEAN_MOTION_DOT = .258234E-2
MEAN_MOTION_DDOT = 0

CCSDS_OMM_VERS = 2.0
CREATION_DATE  = 
ORIGINATOR     = 

OBJECT_NAME    = STARLINK-36745
OBJECT_ID      = 2026-054AB
CENTER_NAME    = EARTH
REF_FRAME      = TEME
TIME_SYSTEM    = UTC
MEAN_ELEMENT_THEORY = SGP/SGP4

EPOCH          = 2026-04-02T22:00:01.999584
MEAN_MOTION    = 15.75377217
ECCENTRICITY   = .00009107
INCLINATION    = 53.1588
RA_OF_ASC_NODE = 191.1835
ARG_OF_PERICENTER = 85.0166
MEAN_ANOMALY   = 16.7742

EPHEMERIS_TYPE = 0
CLASSIFICATION_TYPE = U
NORAD_CAT_ID   = 68257
ELEMENT_SET_NO = 999
REV_AT_EPOCH   = 380
BSTAR          = -.20802193E-2
MEAN_MOTION_DOT = -.309973E-2
MEAN_MOTION_DDOT = 0

CCSDS_OMM_VERS = 2.0
CREATION_DATE  = 
ORIGINATOR     = 

OBJECT_NAME    = STARLINK-36890
OBJECT_ID      = 2026-054AC
CENTER_NAME    = EARTH
REF_FRAME      = TEME
TIME_SYSTEM    = UTC
MEAN_ELEMENT_THEORY = SGP/SGP4

EPOCH          = 2026-04-02T18:12:14.074272
MEAN_MOTION    = 15.81019119
ECCENTRICITY   = .00013402
INCLINATION    = 53.1592
RA_OF_ASC_NODE = 191.8140
ARG_OF_PERICENTER = 99.4609
MEAN_ANOMALY   = 260.6565

EPHEMERIS_TYPE = 0
CLASSIFICATION_TYPE = U
NORAD_CAT_ID   = 68258
ELEMENT_SET_NO = 999
REV_AT_EPOCH   = 258
BSTAR          = .14575377E-2
MEAN_MOTION_DOT = .299169E-2
MEAN_MOTION_DDOT = 0

CCSDS_OMM_VERS = 2.0
CREATION_DATE  = 
ORIGINATOR     = 

OBJECT_NAME    = STARLINK-36323
OBJECT_ID      = 2026-054AD
CENTER_NAME    = EARTH
REF_FRAME      = TEME
TIME_SYSTEM    = UTC
MEAN_ELEMENT_THEORY = SGP/SGP4

EPOCH          = 2026-04-02T18:14:23.712288
MEAN_MOTION    = 15.81046155
ECCENTRICITY   = .00014283
INCLINATION    = 53.1591
RA_OF_ASC_NODE = 191.8239
ARG_OF_PERICENTER = 57.0917
MEAN_ANOMALY   = 303.0243

EPHEMERIS_TYPE = 0
CLASSIFICATION_TYPE = U
NORAD_CAT_ID   = 68259
ELEMENT_SET_NO = 999
REV_AT_EPOCH   = 258
BSTAR          = .19408803E-2
MEAN_MOTION_DOT = .404052E-2
MEAN_MOTION_DDOT = 0

CCSDS_OMM_VERS = 2.0
CREATION_DATE  = 
ORIGINATOR     = 

OBJECT_NAME    = STARLINK-37056
OBJECT_ID      = 2026-054AE
CENTER_NAME    = EARTH
REF_FRAME      = TEME
TIME_SYSTEM    = UTC
MEAN_ELEMENT_THEORY = SGP/SGP4

EPOCH          = 2026-04-02T18:11:09.157632
MEAN_MOTION    = 15.81026869
ECCENTRICITY   = .00010328
INCLINATION    = 53.1594
RA_OF_ASC_NODE = 191.8088
ARG_OF_PERICENTER = 87.1725
MEAN_ANOMALY   = 272.9416

EPHEMERIS_TYPE = 0
CLASSIFICATION_TYPE = U
NORAD_CAT_ID   = 68260
ELEMENT_SET_NO = 999
REV_AT_EPOCH   = 258
BSTAR          = .15156223E-2
MEAN_MOTION_DOT = .311692E-2
MEAN_MOTION_DDOT = 0

CCSDS_OMM_VERS = 2.0
CREATION_DATE  = 
ORIGINATOR     = 

OBJECT_NAME    = TEN-KOH 2
OBJECT_ID      = 2025-241B
CENTER_NAME    = EARTH
REF_FRAME      = TEME
TIME_SYSTEM    = UTC
MEAN_ELEMENT_THEORY = SGP/SGP4

EPOCH          = 2026-04-02T15:23:05.134560
MEAN_MOTION    = 15.22854649
ECCENTRICITY   = .00045685
INCLINATION    = 51.6394
RA_OF_ASC_NODE = 318.9909
ARG_OF_PERICENTER = 244.6568
MEAN_ANOMALY   = 115.3937

EPHEMERIS_TYPE = 0
CLASSIFICATION_TYPE = U
NORAD_CAT_ID   = 68261
ELEMENT_SET_NO = 999
REV_AT_EPOCH   = 339
BSTAR          = .46514882E-3
MEAN_MOTION_DOT = .10726E-3
MEAN_MOTION_DDOT = 0

CCSDS_OMM_VERS = 2.0
CREATION_DATE  = 
ORIGINATOR     = 

OBJECT_NAME    = STARLINK-37162
OBJECT_ID      = 2026-055A
CENTER_NAME    = EARTH
REF_FRAME      = TEME
TIME_SYSTEM    = UTC
MEAN_ELEMENT_THEORY = SGP/SGP4

EPOCH          = 2026-04-02T22:00:01.999584
MEAN_MOTION    = 15.83053404
ECCENTRICITY   = .00011165
INCLINATION    = 53.1583
RA_OF_ASC_NODE = 215.8890
ARG_OF_PERICENTER = 53.1582
MEAN_ANOMALY   = 291.4483

EPHEMERIS_TYPE = 0
CLASSIFICATION_TYPE = U
NORAD_CAT_ID   = 68262
ELEMENT_SET_NO = 999
REV_AT_EPOCH   = 352
BSTAR          = -.60115852E-2
MEAN_MOTION_DOT = -.1172681E-1
MEAN_MOTION_DDOT = 0

