STARLINK-36274          
1 68251U 26054V   26092.91668981 -.00211190  00000+0 -14041-2 0  9993
2 68251  53.1591 191.2897 0001175  69.6888 340.6603 15.75303634  3848
STARLINK-37085          
1 68252U 26054W   26092.76374482  .00321546  00000+0  15602-2 0  9996
2 68252  53.1594 191.8494 0001325  68.0300 292.0863 15.81047337  2580
STARLINK-37086          
1 68253U 26054X   26092.76299768  .00338664  00000+0  16413-2 0  9990
2 68253  53.1591 191.8445 0001345  80.5591 279.5583 15.81026615  2582
STARLINK-37084          
1 68254U 26054Y   26092.76149251  .00212102  00000+0  10458-2 0  9993
2 68254  53.1593 191.8347 0000160 131.6866 228.4171 15.80998864  2582
STARLINK-37075          
1 68255U 26054Z   26092.76224150  .00293747  00000+0  14312-2 0  9993
2 68255  53.1593 191.8399 0000914  67.5136 292.5983 15.81031939  2589
STARLINK-36333          
1 68256U 26054AA  26092.76074911  .00258234  00000+0  12660-2 0  9998
2 68256  53.1594 191.8297 0001266  74.6500 285.4663 15.80995959  2589
STARLINK-36745          
1 68257U 26054AB  26092.91668981 -.00309973  00000+0 -20802-2 0  9998
2 68257  53.1588 191.1835 0000910  85.0166  16.7742 15.75377217  3807
STARLINK-36890          
1 68258U 26054AC  26092.75849623  .00299169  00000+0  14575-2 0  9998
2 68258  53.1592 191.8140 0001340  99.4609 260.6565 15.81019119  2586
STARLINK-36323          
1 68259U 26054AD  26092.75999667  .00404052  00000+0  19409-2 0  9993
2 68259  53.1591 191.8239 0001428  57.0917 303.0243 15.81046155  2589
STARLINK-37056          
1 68260U 26054AE  26092.75774488  .00311692  00000+0  15156-2 0  9999
2 68260  53.1594 191.8088 0001032  87.1725 272.9416 15.81026869  2584
TEN-KOH 2               
1 68261U 25241B   26092.64103165  .00010726  00000+0  46515-3 0  9991
2 68261  51.6394 318.9909 0004568 244.6568 115.3937 15.22854649  3390
STARLINK-37162          
1 68262U 26055A   26092.91668981 -.01172681  00000+0 -60116-2 0  9992
2 68262  53.1583 215.8890 0001116  53.1582 291.4483 15.83053404  3521
